ONEWEB-0709             
1 55172U 23004AJ  26157.59908412  .00000130  00000+0  33089-3 0  9997
2 55172  87.8892  23.1878 0001301 108.2007 251.9263 13.11420375164484
ONEWEB-0710             
1 55173U 23004AK  26157.57271677 -.00000173  00000+0 -47796-3 0  9991
2 55173  87.9141   7.9777 0001966  88.5917 271.5440 13.17649009166185
ONEWEB-0711             
1 55174U 23004AL  26157.57027306 -.00000450  00000+0 -13066-2 0  9990
2 55174  87.8895  23.1790 0002518  87.1026 273.0390 13.11416714164443
ONEWEB-0713             
1 55175U 23004AM  26157.58891190 -.00000309  00000+0 -90809-3 0  9996
2 55175  87.8903  23.1783 0002169  86.9401 273.1975 13.11419442164432
ONEWEB-0715             
1 55176U 23004AN  26157.58382632 -.00000462  00000+0 -13396-2 0  9998
2 55176  87.8904  23.1793 0001682 108.3418 251.7893 13.11418261164474
ONEWEB-0716             
1 55177U 23004AP  26157.56596659 -.00000125  00000+0 -35609-3 0  9991
2 55177  87.9143   7.9817 0001659  80.0371 280.0948 13.17648810166183
ONEWEB-0717             
1 55178U 23004AQ  26157.85283130 -.00000284  00000+0 -76436-3 0  9990
2 55178  87.9150   7.9113 0002360  94.4465 265.6936 13.17648932166275
ONEWEB-0719             
1 55179U 23004AR  26157.55921910 -.00000054  00000+0 -17211-3 0  9994
2 55179  87.9151   7.9502 0001828  80.4653 279.6685 13.17648936166181
ONEWEB-0530             
1 55796U 23029A   26157.55973784  .00000094  00000+0  19992-3 0  9992
2 55796  87.9181 276.5882 0002362  95.9219 264.2184 13.20771003159741
ONEWEB-0534             
1 55797U 23029B   26157.62370546  .00000027  00000+0  35316-4 0  9993
2 55797  87.9180 276.5758 0001805  97.6345 262.4993 13.20771488159759
ONEWEB-0556             
1 55798U 23029C   26157.02439971  .00000036  00000+0  57054-4 0  9999
2 55798  87.9176 276.6951 0001989  74.7735 285.3618 13.20773126159673
ONEWEB-0562             
1 55799U 23029D   26157.61696421 -.00000111  00000+0 -30398-3 0  9997
2 55799  87.9176 276.5577 0002568  84.4845 275.6582 13.20771523159751
ONEWEB-0563             
1 55800U 23029E   26157.61193058 -.00000007  00000+0 -49253-4 0  9993
2 55800  87.9180 276.5893 0001695  98.8040 261.3285 13.20772262159748
ONEWEB-0564             
1 55801U 23029F   26157.60519094 -.00000146  00000+0 -39105-3 0  9993
2 55801  87.9181 276.5640 0002263  93.5676 266.5716 13.20772014159751
ONEWEB-0638             
1 55802U 23029G   26157.66046516  .00000249  00000+0  63701-3 0  9995
2 55802  87.8943 291.8516 0001987  83.4439 276.6917 13.14502099158016
ONEWEB-0639             
1 55803U 23029H   26157.64501539 -.00000077  00000+0 -22562-3 0  9996
2 55803  87.9158 307.0769 0000834 108.5947 251.5276 13.19725081157516
