[{"OBJECT_NAME":"ONEWEB-0709","OBJECT_ID":"2023-004AJ","EPOCH":"2026-06-06T14:22:40.867968","MEAN_MOTION":13.11420375,"ECCENTRICITY":0.0001301,"INCLINATION":87.8892,"RA_OF_ASC_NODE":23.1878,"ARG_OF_PERICENTER":108.2007,"MEAN_ANOMALY":251.9263,"EPHEMERIS_TYPE":0,"CLASSIFICATION_TYPE":"U","NORAD_CAT_ID":55172,"ELEMENT_SET_NO":999,"REV_AT_EPOCH":16448,"BSTAR":0.00033089,"MEAN_MOTION_DOT":1.3e-06,"MEAN_MOTION_DDOT":0.0},{"OBJECT_NAME":"ONEWEB-0710","OBJECT_ID":"2023-004AK","EPOCH":"2026-06-06T13:44:42.728928","MEAN_MOTION":13.17649009,"ECCENTRICITY":0.0001966,"INCLINATION":87.9141,"RA_OF_ASC_NODE":7.9777,"ARG_OF_PERICENTER":88.5917,"MEAN_ANOMALY":271.544,"EPHEMERIS_TYPE":0,"CLASSIFICATION_TYPE":"U","NORAD_CAT_ID":55173,"ELEMENT_SET_NO":999,"REV_AT_EPOCH":16618,"BSTAR":-0.00047796,"MEAN_MOTION_DOT":-1.73e-06,"MEAN_MOTION_DDOT":0.0},{"OBJECT_NAME":"ONEWEB-0711","OBJECT_ID":"2023-004AL","EPOCH":"2026-06-06T13:41:11.592384","MEAN_MOTION":13.11416714,"ECCENTRICITY":0.0002518,"INCLINATION":87.8895,"RA_OF_ASC_NODE":23.179,"ARG_OF_PERICENTER":87.1026,"MEAN_ANOMALY":273.039,"EPHEMERIS_TYPE":0,"CLASSIFICATION_TYPE":"U","NORAD_CAT_ID":55174,"ELEMENT_SET_NO":999,"REV_AT_EPOCH":16444,"BSTAR":-0.0013066,"MEAN_MOTION_DOT":-4.5e-06,"MEAN_MOTION_DDOT":0.0},{"OBJECT_NAME":"ONEWEB-0713","OBJECT_ID":"2023-004AM","EPOCH":"2026-06-06T14:08:01.988160","MEAN_MOTION":13.11419442,"ECCENTRICITY":0.0002169,"INCLINATION":87.8903,"RA_OF_ASC_NODE":23.1783,"ARG_OF_PERICENTER":86.9401,"MEAN_ANOMALY":273.1975,"EPHEMERIS_TYPE":0,"CLASSIFICATION_TYPE":"U","NORAD_CAT_ID":55175,"ELEMENT_SET_NO":999,"REV_AT_EPOCH":16443,"BSTAR":-0.00090809,"MEAN_MOTION_DOT":-3.09e-06,"MEAN_MOTION_DDOT":0.0},{"OBJECT_NAME":"ONEWEB-0715","OBJECT_ID":"2023-004AN","EPOCH":"2026-06-06T14:00:42.594048","MEAN_MOTION":13.11418261,"ECCENTRICITY":0.0001682,"INCLINATION":87.8904,"RA_OF_ASC_NODE":23.1793,"ARG_OF_PERICENTER":108.3418,"MEAN_ANOMALY":251.7893,"EPHEMERIS_TYPE":0,"CLASSIFICATION_TYPE":"U","NORAD_CAT_ID":55176,"ELEMENT_SET_NO":999,"REV_AT_EPOCH":16447,"BSTAR":-0.0013396,"MEAN_MOTION_DOT":-4.62e-06,"MEAN_MOTION_DDOT":0.0},{"OBJECT_NAME":"ONEWEB-0716","OBJECT_ID":"2023-004AP","EPOCH":"2026-06-06T13:34:59.513376","MEAN_MOTION":13.1764881,"ECCENTRICITY":0.0001659,"INCLINATION":87.9143,"RA_OF_ASC_NODE":7.9817,"ARG_OF_PERICENTER":80.0371,"MEAN_ANOMALY":280.0948,"EPHEMERIS_TYPE":0,"CLASSIFICATION_TYPE":"U","NORAD_CAT_ID":55177,"ELEMENT_SET_NO":999,"REV_AT_EPOCH":16618,"BSTAR":-0.00035609000000000004,"MEAN_MOTION_DOT":-1.25e-06,"MEAN_MOTION_DDOT":0.0},{"OBJECT_NAME":"ONEWEB-0717","OBJECT_ID":"2023-004AQ","EPOCH":"2026-06-06T20:28:04.624320","MEAN_MOTION":13.17648932,"ECCENTRICITY":0.000236,"INCLINATION":87.915,"RA_OF_ASC_NODE":7.9113,"ARG_OF_PERICENTER":94.4465,"MEAN_ANOMALY":265.6936,"EPHEMERIS_TYPE":0,"CLASSIFICATION_TYPE":"U","NORAD_CAT_ID":55178,"ELEMENT_SET_NO":999,"REV_AT_EPOCH":16627,"BSTAR":-0.0007643600000000001,"MEAN_MOTION_DOT":-2.84e-06,"MEAN_MOTION_DDOT":0.0},{"OBJECT_NAME":"ONEWEB-0719","OBJECT_ID":"2023-004AR","EPOCH":"2026-06-06T13:25:16.530240","MEAN_MOTION":13.17648936,"ECCENTRICITY":0.0001828,"INCLINATION":87.9151,"RA_OF_ASC_NODE":7.9502,"ARG_OF_PERICENTER":80.4653,"MEAN_ANOMALY":279.6685,"EPHEMERIS_TYPE":0,"CLASSIFICATION_TYPE":"U","NORAD_CAT_ID":55179,"ELEMENT_SET_NO":999,"REV_AT_EPOCH":16618,"BSTAR":-0.00017211,"MEAN_MOTION_DOT":-5.4e-07,"MEAN_MOTION_DDOT":0.0},{"OBJECT_NAME":"ONEWEB-0530","OBJECT_ID":"2023-029A","EPOCH":"2026-06-06T13:26:01.349376","MEAN_MOTION":13.20771003,"ECCENTRICITY":0.0002362,"INCLINATION":87.9181,"RA_OF_ASC_NODE":276.5882,"ARG_OF_PERICENTER":95.9219,"MEAN_ANOMALY":264.2184,"EPHEMERIS_TYPE":0,"CLASSIFICATION_TYPE":"U","NORAD_CAT_ID":55796,"ELEMENT_SET_NO":999,"REV_AT_EPOCH":15974,"BSTAR":0.00019992,"MEAN_MOTION_DOT":9.4e-07,"MEAN_MOTION_DDOT":0.0},{"OBJECT_NAME":"ONEWEB-0534","OBJECT_ID":"2023-029B","EPOCH":"2026-06-06T14:58:08.151744","MEAN_MOTION":13.20771488,"ECCENTRICITY":0.0001805,"INCLINATION":87.918,"RA_OF_ASC_NODE":276.5758,"ARG_OF_PERICENTER":97.6345,"MEAN_ANOMALY":262.4993,"EPHEMERIS_TYPE":0,"CLASSIFICATION_TYPE":"U","NORAD_CAT_ID":55797,"ELEMENT_SET_NO":999,"REV_AT_EPOCH":15975,"BSTAR":3.5316e-05,"MEAN_MOTION_DOT":2.7e-07,"MEAN_MOTION_DDOT":0.0},{"OBJECT_NAME":"ONEWEB-0556","OBJECT_ID":"2023-029C","EPOCH":"2026-06-06T00:35:08.134944","MEAN_MOTION":13.20773126,"ECCENTRICITY":0.0001989,"INCLINATION":87.9176,"RA_OF_ASC_NODE":276.6951,"ARG_OF_PERICENTER":74.7735,"MEAN_ANOMALY":285.3618,"EPHEMERIS_TYPE":0,"CLASSIFICATION_TYPE":"U","NORAD_CAT_ID":55798,"ELEMENT_SET_NO":999,"REV_AT_EPOCH":15967,"BSTAR":5.7054000000000006e-05,"MEAN_MOTION_DOT":3.6e-07,"MEAN_MOTION_DDOT":0.0},{"OBJECT_NAME":"ONEWEB-0562","OBJECT_ID":"2023-029D","EPOCH":"2026-06-06T14:48:25.707744","MEAN_MOTION":13.20771523,"ECCENTRICITY":0.0002568,"INCLINATION":87.9176,"RA_OF_ASC_NODE":276.5577,"ARG_OF_PERICENTER":84.4845,"MEAN_ANOMALY":275.6582,"EPHEMERIS_TYPE":0,"CLASSIFICATION_TYPE":"U","NORAD_CAT_ID":55799,"ELEMENT_SET_NO":999,"REV_AT_EPOCH":15975,"BSTAR":-0.00030397999999999997,"MEAN_MOTION_DOT":-1.11e-06,"MEAN_MOTION_DDOT":0.0},{"OBJECT_NAME":"ONEWEB-0563","OBJECT_ID":"2023-029E","EPOCH":"2026-06-06T14:41:10.802112","MEAN_MOTION":13.20772262,"ECCENTRICITY":0.0001695,"INCLINATION":87.918,"RA_OF_ASC_NODE":276.5893,"ARG_OF_PERICENTER":98.804,"MEAN_ANOMALY":261.3285,"EPHEMERIS_TYPE":0,"CLASSIFICATION_TYPE":"U","NORAD_CAT_ID":55800,"ELEMENT_SET_NO":999,"REV_AT_EPOCH":15974,"BSTAR":-4.9253000000000004e-05,"MEAN_MOTION_DOT":-7e-08,"MEAN_MOTION_DDOT":0.0},{"OBJECT_NAME":"ONEWEB-0564","OBJECT_ID":"2023-029F","EPOCH":"2026-06-06T14:31:28.497216","MEAN_MOTION":13.20772014,"ECCENTRICITY":0.0002263,"INCLINATION":87.9181,"RA_OF_ASC_NODE":276.564,"ARG_OF_PERICENTER":93.5676,"MEAN_ANOMALY":266.5716,"EPHEMERIS_TYPE":0,"CLASSIFICATION_TYPE":"U","NORAD_CAT_ID":55801,"ELEMENT_SET_NO":999,"REV_AT_EPOCH":15975,"BSTAR":-0.00039105,"MEAN_MOTION_DOT":-1.46e-06,"MEAN_MOTION_DDOT":0.0},{"OBJECT_NAME":"ONEWEB-0638","OBJECT_ID":"2023-029G","EPOCH":"2026-06-06T15:51:04.189824","MEAN_MOTION":13.14502099,"ECCENTRICITY":0.0001987,"INCLINATION":87.8943,"RA_OF_ASC_NODE":291.8516,"ARG_OF_PERICENTER":83.4439,"MEAN_ANOMALY":276.6917,"EPHEMERIS_TYPE":0,"CLASSIFICATION_TYPE":"U","NORAD_CAT_ID":55802,"ELEMENT_SET_NO":999,"REV_AT_EPOCH":15801,"BSTAR":0.00063701,"MEAN_MOTION_DOT":2.49e-06,"MEAN_MOTION_DDOT":0.0},{"OBJECT_NAME":"ONEWEB-0639","OBJECT_ID":"2023-029H","EPOCH":"2026-06-06T15:28:49.329696","MEAN_MOTION":13.19725081,"ECCENTRICITY":8.34e-05,"INCLINATION":87.9158,"RA_OF_ASC_NODE":307.0769,"ARG_OF_PERICENTER":108.5947,"MEAN_ANOMALY":251.5276,"EPHEMERIS_TYPE":0,"CLASSIFICATION_TYPE":"U","NORAD_CAT_ID":55803,"ELEMENT_SET_NO":999,"REV_AT_EPOCH":15751,"BSTAR":-0.00022562,"MEAN_MOTION_DOT":-7.7e-07,"MEAN_MOTION_DDOT":0.0}]